{
  "type": "FeatureCollection",
  "features": [
    {
      "type": "Feature",
      "properties": {
        "norad_id": 39766,
        "name": "ALOS-2",
        "group": "resource",
        "lat": -71.73890166238304,
        "lon": -133.39703253426595,
        "alt_km": 639.0544072141265,
        "timestamp": "2025-12-02T13:52:16.932755+00:00",
        "meta_object_name": "ALOS-2",
        "meta_object_id": "2014-029A",
        "meta_epoch": "2025-12-02T06:14:11.929920",
        "meta_mean_motion": 14.79508329,
        "meta_eccentricity": 0.00013811,
        "meta_inclination": 97.9234,
        "meta_ra_of_asc_node": 71.2553,
        "meta_arg_of_pericenter": 98.5491,
        "meta_mean_anomaly": 261.5877,
        "meta_ephemeris_type": 0,
        "meta_classification_type": "U",
        "meta_norad_cat_id": 39766,
        "meta_element_set_no": 999,
        "meta_rev_at_epoch": 62246,
        "meta_bstar": 0.00035770461,
        "meta_mean_motion_dot": 2.623e-05,
        "meta_mean_motion_ddot": 0,
        "tle_line1": "1 39766U 14029A   25336.25986030  .00002623  00000+0  35770-3 0  9996",
        "tle_line2": "2 39766  97.9234  71.2553 0001381  98.5491 261.5877 14.79508329622463"
      },
      "geometry": {
        "type": "Point",
        "coordinates": [
          -133.39703253426595,
          -71.73890166238304
        ]
      }
    },
    {
      "type": "Feature",
      "properties": {
        "norad_id": 40010,
        "name": "KAZEOSAT 2",
        "group": "resource",
        "lat": -43.732810120766665,
        "lon": -171.29228970954372,
        "alt_km": 618.1950141539892,
        "timestamp": "2025-12-02T13:52:16.932765+00:00",
        "meta_object_name": "KAZEOSAT 2",
        "meta_object_id": "2014-033A",
        "meta_epoch": "2025-12-02T07:36:07.487712",
        "meta_mean_motion": 14.85140156,
        "meta_eccentricity": 0.00072067,
        "meta_inclination": 97.5512,
        "meta_ra_of_asc_node": 181.169,
        "meta_arg_of_pericenter": 245.92,
        "meta_mean_anomaly": 114.1262,
        "meta_ephemeris_type": 0,
        "meta_classification_type": "U",
        "meta_norad_cat_id": 40010,
        "meta_element_set_no": 999,
        "meta_rev_at_epoch": 61973,
        "meta_bstar": 0.00013083889,
        "meta_mean_motion_dot": 1.07e-05,
        "meta_mean_motion_ddot": 0,
        "tle_line1": "1 40010U 14033A   25336.31675333  .00001070  00000+0  13084-3 0  9992",
        "tle_line2": "2 40010  97.5512 181.1690 0007206 245.9200 114.1262 14.85140156619737"
      },
      "geometry": {
        "type": "Point",
        "coordinates": [
          -171.29228970954372,
          -43.732810120766665
        ]
      }
    },
    {
      "type": "Feature",
      "properties": {
        "norad_id": 40011,
        "name": "HODOYOSHI-4",
        "group": "resource",
        "lat": -39.770038894209414,
        "lon": 172.29294302483882,
        "alt_km": 610.9375543091155,
        "timestamp": "2025-12-02T13:52:16.932776+00:00",
        "meta_object_name": "HODOYOSHI-4",
        "meta_object_id": "2014-033B",
        "meta_epoch": "2025-12-02T07:35:37.561344",
        "meta_mean_motion": 14.87418861,
        "meta_eccentricity": 0.00226019,
        "meta_inclination": 97.5417,
        "meta_ra_of_asc_node": 165.7139,
        "meta_arg_of_pericenter": 236.479,
        "meta_mean_anomaly": 123.4268,
        "meta_ephemeris_type": 0,
        "meta_classification_type": "U",
        "meta_norad_cat_id": 40011,
        "meta_element_set_no": 999,
        "meta_rev_at_epoch": 61953,
        "meta_bstar": 0.00024868719,
        "meta_mean_motion_dot": 2.208e-05,
        "meta_mean_motion_ddot": 0,
        "tle_line1": "1 40011U 14033B   25336.31640696  .00002208  00000+0  24869-3 0  9994",
        "tle_line2": "2 40011  97.5417 165.7139 0022601 236.4790 123.4268 14.87418861619533"
      },
      "geometry": {
        "type": "Point",
        "coordinates": [
          172.29294302483882,
          -39.770038894209414
        ]
      }
    },
    {
      "type": "Feature",
      "properties": {
        "norad_id": 40013,
        "name": "DEIMOS-2",
        "group": "resource",
        "lat": -80.04541974195261,
        "lon": -97.69153669978438,
        "alt_km": 596.7663093643578,
        "timestamp": "2025-12-02T13:52:16.932786+00:00",
        "meta_object_name": "DEIMOS-2",
        "meta_object_id": "2014-033D",
        "meta_epoch": "2025-12-02T06:12:07.975296",
        "meta_mean_motion": 14.92894046,
        "meta_eccentricity": 7.433e-05,
        "meta_inclination": 97.6073,
        "meta_ra_of_asc_node": 212.4037,
        "meta_arg_of_pericenter": 81.056,
        "meta_mean_anomaly": 279.0744,
        "meta_ephemeris_type": 0,
        "meta_classification_type": "U",
        "meta_norad_cat_id": 40013,
        "meta_element_set_no": 999,
        "meta_rev_at_epoch": 60833,
        "meta_bstar": 0.00029573263,
        "meta_mean_motion_dot": 3.011e-05,
        "meta_mean_motion_ddot": 0,
        "tle_line1": "1 40013U 14033D   25336.25842564  .00003011  00000+0  29573-3 0  9997",
        "tle_line2": "2 40013  97.6073 212.4037 0000743  81.0560 279.0744 14.92894046608335"
      },
      "geometry": {
        "type": "Point",
        "coordinates": [
          -97.69153669978438,
          -80.04541974195261
        ]
      }
    },
    {
      "type": "Feature",
      "properties": {
        "norad_id": 40015,
        "name": "HODOYOSHI-3",
        "group": "resource",
        "lat": -17.016085268234043,
        "lon": 145.202774971709,
        "alt_km": 608.1883609726574,
        "timestamp": "2025-12-02T13:52:16.932796+00:00",
        "meta_object_name": "HODOYOSHI-3",
        "meta_object_id": "2014-033F",
        "meta_epoch": "2025-12-02T04:14:37.550400",
        "meta_mean_motion": 14.84746309,
        "meta_eccentricity": 0.00318639,
        "meta_inclination": 97.6193,
        "meta_ra_of_asc_node": 142.4714,
        "meta_arg_of_pericenter": 284.1163,
        "meta_mean_anomaly": 75.6512,
        "meta_ephemeris_type": 0,
        "meta_classification_type": "U",
        "meta_norad_cat_id": 40015,
        "meta_element_set_no": 999,
        "meta_rev_at_epoch": 61838,
        "meta_bstar": 0.00027126378,
        "meta_mean_motion_dot": 2.267e-05,
        "meta_mean_motion_ddot": 0,
        "tle_line1": "1 40015U 14033F   25336.17682350  .00002267  00000+0  27126-3 0  9999",
        "tle_line2": "2 40015  97.6193 142.4714 0031863 284.1163  75.6512 14.84746309618384"
      },
      "geometry": {
        "type": "Point",
        "coordinates": [
          145.202774971709,
          -17.016085268234043
        ]
      }
    },
    {
      "type": "Feature",
      "properties": {
        "norad_id": 40053,
        "name": "SPOT 7",
        "group": "resource",
        "lat": -43.27774235724686,
        "lon": -148.81180048746052,
        "alt_km": 698.1768055004195,
        "timestamp": "2025-12-02T13:52:16.932806+00:00",
        "meta_object_name": "SPOT 7",
        "meta_object_id": "2014-034A",
        "meta_epoch": "2025-12-02T06:16:27.469056",
        "meta_mean_motion": 14.60711871,
        "meta_eccentricity": 0.00015089,
        "meta_inclination": 98.092,
        "meta_ra_of_asc_node": 38.5778,
        "meta_arg_of_pericenter": 97.5639,
        "meta_mean_anomaly": 262.5734,
        "meta_ephemeris_type": 0,
        "meta_classification_type": "U",
        "meta_norad_cat_id": 40053,
        "meta_element_set_no": 999,
        "meta_rev_at_epoch": 60838,
        "meta_bstar": 0.00017768226,
        "meta_mean_motion_dot": 8.2e-06,
        "meta_mean_motion_ddot": 0,
        "tle_line1": "1 40053U 14034A   25336.26142904  .00000820  00000+0  17768-3 0  9992",
        "tle_line2": "2 40053  98.0920  38.5778 0001508  97.5639 262.5734 14.60711871608383"
      },
      "geometry": {
        "type": "Point",
        "coordinates": [
          -148.81180048746052,
          -43.27774235724686
        ]
      }
    },
    {
      "type": "Feature",
      "properties": {
        "norad_id": 40072,
        "name": "SKYSAT-B",
        "group": "resource",
        "lat": -81.34479102895456,
        "lon": 24.747408659112015,
        "alt_km": 613.5678666987269,
        "timestamp": "2025-12-02T13:52:16.932816+00:00",
        "meta_object_name": "SKYSAT-B",
        "meta_object_id": "2014-037D",
        "meta_epoch": "2025-12-02T01:22:06.332736",
        "meta_mean_motion": 14.87260688,
        "meta_eccentricity": 0.00052784,
        "meta_inclination": 98.359,
        "meta_ra_of_asc_node": 279.2005,
        "meta_arg_of_pericenter": 183.5054,
        "meta_mean_anomaly": 176.6124,
        "meta_ephemeris_type": 0,
        "meta_classification_type": "U",
        "meta_norad_cat_id": 40072,
        "meta_element_set_no": 999,
        "meta_rev_at_epoch": 61665,
        "meta_bstar": 0.00029035205,
        "meta_mean_motion_dot": 2.557e-05,
        "meta_mean_motion_ddot": 0,
        "tle_line1": "1 40072U 14037D   25336.05701774  .00002557  00000+0  29035-3 0  9998",
        "tle_line2": "2 40072  98.3590 279.2005 0005278 183.5054 176.6124 14.87260688616653"
      },
      "geometry": {
        "type": "Point",
        "coordinates": [
          24.747408659112015,
          -81.34479102895456
        ]
      }
    }
  ]
}